{
  "name": "SATGUS",
  "line1": "1 62713U 25009DJ  25351.47246629  .00005899  00000+0  50008-3 0  9997",
  "line2": "2 62713  97.7219  69.5504 0002367  26.2051 333.9291 14.98334765 50329",
  "fetched_at": "2025-12-18T00:16:44.523245+00:00"
}